[{"OBJECT_NAME":"ONEWEB-0121","OBJECT_ID":"2020-100K","EPOCH":"2025-12-18T03:41:37.716864","MEAN_MOTION":13.12514915,"ECCENTRICITY":0.00019186,"INCLINATION":87.8937,"RA_OF_ASC_NODE":26.6119,"ARG_OF_PERICENTER":91.8908,"MEAN_ANOMALY":268.244,"EPHEMERIS_TYPE":0,"CLASSIFICATION_TYPE":"U","NORAD_CAT_ID":47267,"ELEMENT_SET_NO":999,"REV_AT_EPOCH":24089,"BSTAR":0.00054201489,"MEAN_MOTION_DOT":2.08e-6,"MEAN_MOTION_DDOT":0},{"OBJECT_NAME":"ONEWEB-0122","OBJECT_ID":"2020-100L","EPOCH":"2025-12-18T03:34:12.679104","MEAN_MOTION":13.12539837,"ECCENTRICITY":0.00017082,"INCLINATION":87.8936,"RA_OF_ASC_NODE":26.6156,"ARG_OF_PERICENTER":91.0971,"MEAN_ANOMALY":269.0353,"EPHEMERIS_TYPE":0,"CLASSIFICATION_TYPE":"U","NORAD_CAT_ID":47268,"ELEMENT_SET_NO":999,"REV_AT_EPOCH":24080,"BSTAR":3.8681497e-5,"MEAN_MOTION_DOT":2.7e-7,"MEAN_MOTION_DDOT":0},{"OBJECT_NAME":"ONEWEB-0123","OBJECT_ID":"2020-100M","EPOCH":"2025-12-18T03:27:10.533888","MEAN_MOTION":13.12571508,"ECCENTRICITY":0.00017505,"INCLINATION":87.8927,"RA_OF_ASC_NODE":26.6424,"ARG_OF_PERICENTER":100.1446,"MEAN_ANOMALY":259.988,"EPHEMERIS_TYPE":0,"CLASSIFICATION_TYPE":"U","NORAD_CAT_ID":47269,"ELEMENT_SET_NO":999,"REV_AT_EPOCH":24094,"BSTAR":-0.0005107107,"MEAN_MOTION_DOT":-1.71e-6,"MEAN_MOTION_DDOT":0},{"OBJECT_NAME":"ONEWEB-0124","OBJECT_ID":"2020-100N","EPOCH":"2025-12-18T03:11:56.586912","MEAN_MOTION":13.1241432,"ECCENTRICITY":0.00019456,"INCLINATION":87.8927,"RA_OF_ASC_NODE":26.6491,"ARG_OF_PERICENTER":97.4175,"MEAN_ANOMALY":262.7174,"EPHEMERIS_TYPE":0,"CLASSIFICATION_TYPE":"U","NORAD_CAT_ID":47270,"ELEMENT_SET_NO":999,"REV_AT_EPOCH":24082,"BSTAR":-0.0010331078,"MEAN_MOTION_DOT":-3.59e-6,"MEAN_MOTION_DDOT":0},{"OBJECT_NAME":"ONEWEB-0125","OBJECT_ID":"2020-100P","EPOCH":"2025-12-18T02:39:52.716384","MEAN_MOTION":13.12322871,"ECCENTRICITY":0.00019373,"INCLINATION":87.8935,"RA_OF_ASC_NODE":26.6172,"ARG_OF_PERICENTER":103.0167,"MEAN_ANOMALY":257.1178,"EPHEMERIS_TYPE":0,"CLASSIFICATION_TYPE":"U","NORAD_CAT_ID":47271,"ELEMENT_SET_NO":999,"REV_AT_EPOCH":24088,"BSTAR":-0.00028301611,"MEAN_MOTION_DOT":-8.9e-7,"MEAN_MOTION_DDOT":0},{"OBJECT_NAME":"ONEWEB-0126","OBJECT_ID":"2020-100Q","EPOCH":"2025-12-18T03:09:44.102016","MEAN_MOTION":13.12424579,"ECCENTRICITY":0.00016428,"INCLINATION":87.8937,"RA_OF_ASC_NODE":26.6364,"ARG_OF_PERICENTER":96.7309,"MEAN_ANOMALY":263.4007,"EPHEMERIS_TYPE":0,"CLASSIFICATION_TYPE":"U","NORAD_CAT_ID":47272,"ELEMENT_SET_NO":999,"REV_AT_EPOCH":24095,"BSTAR":-0.00098126879,"MEAN_MOTION_DOT":-3.4e-6,"MEAN_MOTION_DDOT":0},{"OBJECT_NAME":"ONEWEB-0127","OBJECT_ID":"2020-100R","EPOCH":"2025-12-18T07:50:00.597984","MEAN_MOTION":13.12402507,"ECCENTRICITY":0.00016432,"INCLINATION":87.8929,"RA_OF_ASC_NODE":26.6075,"ARG_OF_PERICENTER":94.047,"MEAN_ANOMALY":266.0846,"EPHEMERIS_TYPE":0,"CLASSIFICATION_TYPE":"U","NORAD_CAT_ID":47273,"ELEMENT_SET_NO":999,"REV_AT_EPOCH":24100,"BSTAR":0.0013240091,"MEAN_MOTION_DOT":4.89e-6,"MEAN_MOTION_DDOT":0},{"OBJECT_NAME":"ONEWEB-0128","OBJECT_ID":"2020-100S","EPOCH":"2025-12-18T02:52:44.493888","MEAN_MOTION":13.12490612,"ECCENTRICITY":0.00019184,"INCLINATION":87.8926,"RA_OF_ASC_NODE":26.665,"ARG_OF_PERICENTER":87.383,"MEAN_ANOMALY":272.7518,"EPHEMERIS_TYPE":0,"CLASSIFICATION_TYPE":"U","NORAD_CAT_ID":47274,"ELEMENT_SET_NO":999,"REV_AT_EPOCH":24099,"BSTAR":-0.00073085232,"MEAN_MOTION_DOT":-2.5e-6,"MEAN_MOTION_DDOT":0},{"OBJECT_NAME":"ONEWEB-0129","OBJECT_ID":"2020-100T","EPOCH":"2025-12-18T07:52:25.356864","MEAN_MOTION":13.12388492,"ECCENTRICITY":6.614e-5,"INCLINATION":87.8938,"RA_OF_ASC_NODE":26.5782,"ARG_OF_PERICENTER":75.5609,"MEAN_ANOMALY":284.5592,"EPHEMERIS_TYPE":0,"CLASSIFICATION_TYPE":"U","NORAD_CAT_ID":47275,"ELEMENT_SET_NO":999,"REV_AT_EPOCH":24095,"BSTAR":0.0010440812,"MEAN_MOTION_DOT":3.88e-6,"MEAN_MOTION_DDOT":0},{"OBJECT_NAME":"ONEWEB-0130","OBJECT_ID":"2020-100U","EPOCH":"2025-12-18T03:02:19.898880","MEAN_MOTION":13.1245081,"ECCENTRICITY":0.00017255,"INCLINATION":87.8935,"RA_OF_ASC_NODE":26.6133,"ARG_OF_PERICENTER":92.8569,"MEAN_ANOMALY":267.2757,"EPHEMERIS_TYPE":0,"CLASSIFICATION_TYPE":"U","NORAD_CAT_ID":47276,"ELEMENT_SET_NO":999,"REV_AT_EPOCH":24089,"BSTAR":-0.00092324482,"MEAN_MOTION_DOT":-3.19e-6,"MEAN_MOTION_DDOT":0},{"OBJECT_NAME":"ONEWEB-0131","OBJECT_ID":"2020-100V","EPOCH":"2025-12-18T02:57:30.650688","MEAN_MOTION":13.12471696,"ECCENTRICITY":0.00018084,"INCLINATION":87.8938,"RA_OF_ASC_NODE":26.6442,"ARG_OF_PERICENTER":95.1597,"MEAN_ANOMALY":264.9738,"EPHEMERIS_TYPE":0,"CLASSIFICATION_TYPE":"U","NORAD_CAT_ID":47277,"ELEMENT_SET_NO":999,"REV_AT_EPOCH":24093,"BSTAR":-0.00084982825,"MEAN_MOTION_DOT":-2.93e-6,"MEAN_MOTION_DDOT":0},{"OBJECT_NAME":"ONEWEB-0132","OBJECT_ID":"2020-100W","EPOCH":"2025-12-18T03:39:13.391712","MEAN_MOTION":13.12523991,"ECCENTRICITY":0.00018086,"INCLINATION":87.8937,"RA_OF_ASC_NODE":26.6398,"ARG_OF_PERICENTER":94.293,"MEAN_ANOMALY":265.8405,"EPHEMERIS_TYPE":0,"CLASSIFICATION_TYPE":"U","NORAD_CAT_ID":47278,"ELEMENT_SET_NO":999,"REV_AT_EPOCH":24083,"BSTAR":0.00026351404,"MEAN_MOTION_DOT":1.08e-6,"MEAN_MOTION_DDOT":0},{"OBJECT_NAME":"ONEWEB-0133","OBJECT_ID":"2020-100X","EPOCH":"2025-12-18T04:03:02.046816","MEAN_MOTION":13.12430252,"ECCENTRICITY":0.00018757,"INCLINATION":87.8929,"RA_OF_ASC_NODE":26.5981,"ARG_OF_PERICENTER":92.0736,"MEAN_ANOMALY":268.0607,"EPHEMERIS_TYPE":0,"CLASSIFICATION_TYPE":"U","NORAD_CAT_ID":47279,"ELEMENT_SET_NO":999,"REV_AT_EPOCH":24099,"BSTAR":0.0011875646,"MEAN_MOTION_DOT":4.4e-6,"MEAN_MOTION_DDOT":0},{"OBJECT_NAME":"ONEWEB-0134","OBJECT_ID":"2020-100Y","EPOCH":"2025-12-18T03:19:08.755392","MEAN_MOTION":13.12384562,"ECCENTRICITY":0.00017277,"INCLINATION":87.8936,"RA_OF_ASC_NODE":26.5998,"ARG_OF_PERICENTER":87.1178,"MEAN_ANOMALY":273.0148,"EPHEMERIS_TYPE":0,"CLASSIFICATION_TYPE":"U","NORAD_CAT_ID":47280,"ELEMENT_SET_NO":999,"REV_AT_EPOCH":24096,"BSTAR":-0.00078590153,"MEAN_MOTION_DOT":-2.7e-6,"MEAN_MOTION_DDOT":0},{"OBJECT_NAME":"ONEWEB-0135","OBJECT_ID":"2020-100Z","EPOCH":"2025-12-18T04:27:17.100576","MEAN_MOTION":13.12331399,"ECCENTRICITY":0.00018262,"INCLINATION":87.8934,"RA_OF_ASC_NODE":26.63,"ARG_OF_PERICENTER":83.7213,"MEAN_ANOMALY":276.4124,"EPHEMERIS_TYPE":0,"CLASSIFICATION_TYPE":"U","NORAD_CAT_ID":47281,"ELEMENT_SET_NO":999,"REV_AT_EPOCH":24099,"BSTAR":0.00026911152,"MEAN_MOTION_DOT":1.09e-6,"MEAN_MOTION_DDOT":0},{"OBJECT_NAME":"ONEWEB-0136","OBJECT_ID":"2020-100AA","EPOCH":"2025-12-18T03:04:43.351392","MEAN_MOTION":13.12441069,"ECCENTRICITY":0.00016469,"INCLINATION":87.8936,"RA_OF_ASC_NODE":26.6109,"ARG_OF_PERICENTER":82.9375,"MEAN_ANOMALY":277.1941,"EPHEMERIS_TYPE":0,"CLASSIFICATION_TYPE":"U","NORAD_CAT_ID":47282,"ELEMENT_SET_NO":999,"REV_AT_EPOCH":24091,"BSTAR":-0.0010231497,"MEAN_MOTION_DOT":-3.55e-6,"MEAN_MOTION_DDOT":0},{"OBJECT_NAME":"ONEWEB-0137","OBJECT_ID":"2020-100AB","EPOCH":"2025-12-18T03:53:39.165504","MEAN_MOTION":13.12467142,"ECCENTRICITY":0.00017284,"INCLINATION":87.8937,"RA_OF_ASC_NODE":26.6094,"ARG_OF_PERICENTER":99.4821,"MEAN_ANOMALY":260.6503,"EPHEMERIS_TYPE":0,"CLASSIFICATION_TYPE":"U","NORAD_CAT_ID":47283,"ELEMENT_SET_NO":999,"REV_AT_EPOCH":24082,"BSTAR":0.0011688323,"MEAN_MOTION_DOT":4.33e-6,"MEAN_MOTION_DDOT":0}]
