ONEWEB-0121             
1 47267U 20100K   25352.15390876  .00000208  00000+0  54201-3 0  9999
2 47267  87.8937  26.6119 0001918  91.8908 268.2440 13.12514915240890
ONEWEB-0122             
1 47268U 20100L   25352.14875786  .00000027  00000+0  38681-4 0  9991
2 47268  87.8936  26.6156 0001708  91.0971 269.0353 13.12539837240803
ONEWEB-0123             
1 47269U 20100M   25352.14387192 -.00000171  00000+0 -51071-3 0  9990
2 47269  87.8927  26.6424 0001750 100.1446 259.9880 13.12571508240947
ONEWEB-0124             
1 47270U 20100N   25352.13329383 -.00000359  00000+0 -10331-2 0  9990
2 47270  87.8927  26.6491 0001945  97.4175 262.7174 13.12414320240829
ONEWEB-0125             
1 47271U 20100P   25352.11102681 -.00000089  00000+0 -28302-3 0  9997
2 47271  87.8935  26.6172 0001937 103.0167 257.1178 13.12322871240888
ONEWEB-0126             
1 47272U 20100Q   25352.13176044 -.00000340  00000+0 -98127-3 0  9996
2 47272  87.8937  26.6364 0001642  96.7309 263.4007 13.12424579240950
ONEWEB-0127             
1 47273U 20100R   25352.32639581  .00000489  00000+0  13240-2 0  9992
2 47273  87.8929  26.6075 0001643  94.0470 266.0846 13.12402507241006
ONEWEB-0128             
1 47274U 20100S   25352.11995942 -.00000250  00000+0 -73085-3 0  9998
2 47274  87.8926  26.6650 0001918  87.3830 272.7518 13.12490612240994
ONEWEB-0129             
1 47275U 20100T   25352.32807126  .00000388  00000+0  10441-2 0  9994
2 47275  87.8938  26.5782 0000661  75.5609 284.5592 13.12388492240951
ONEWEB-0130             
1 47276U 20100U   25352.12661920 -.00000319  00000+0 -92324-3 0  9990
2 47276  87.8935  26.6133 0001725  92.8569 267.2757 13.12450810240897
ONEWEB-0131             
1 47277U 20100V   25352.12327142 -.00000293  00000+0 -84983-3 0  9999
2 47277  87.8938  26.6442 0001808  95.1597 264.9738 13.12471696240936
ONEWEB-0132             
1 47278U 20100W   25352.15223833  .00000108  00000+0  26351-3 0  9993
2 47278  87.8937  26.6398 0001808  94.2930 265.8405 13.12523991240833
ONEWEB-0133             
1 47279U 20100X   25352.16877369  .00000440  00000+0  11876-2 0  9998
2 47279  87.8929  26.5981 0001875  92.0736 268.0607 13.12430252240999
ONEWEB-0134             
1 47280U 20100Y   25352.13829578 -.00000270  00000+0 -78590-3 0  9996
2 47280  87.8936  26.5998 0001727  87.1178 273.0148 13.12384562240963
ONEWEB-0135             
1 47281U 20100Z   25352.18561459  .00000109  00000+0  26911-3 0  9992
2 47281  87.8934  26.6300 0001826  83.7213 276.4124 13.12331399240996
ONEWEB-0136             
1 47282U 20100AA  25352.12827953 -.00000355  00000+0 -10231-2 0  9993
2 47282  87.8936  26.6109 0001646  82.9375 277.1941 13.12441069240919
ONEWEB-0137             
1 47283U 20100AB  25352.16225886  .00000433  00000+0  11688-2 0  9997
2 47283  87.8937  26.6094 0001728  99.4821 260.6503 13.12467142240825
